[
  {
    "shop_name": "Tech Repair Hub",
    "owner_name": "Rahul Sharma",
    "phone_number": "9876543210",
    "whatsapp_number": "9876543210",
    "service_type": "Mobile Repair, Laptop Repair",
    "district": "Kolkata",
    "pincode": "700001",
    "PAN_Number": "ABCDE1234F",
    "GSTIN_Number": "22ABCDE1234F1Z5"
  },
  {
    "shop_name": "Home Electric Solutions",
    "owner_name": "Priya Singh",
    "phone_number": "9123456780",
    "whatsapp_number": "9123456780",
    "service_type": "Electrician",
    "district": "Kolkata",
    "pincode": "700002",
    "PAN_Number": "PQRSX5678L",
    "GSTIN_Number": "19PQRSX5678L1Z9"
  },
  {
    "shop_name": "Cool Air Services",
    "owner_name": "Amit Verma",
    "phone_number": "9988776655",
    "whatsapp_number": "9988776655",
    "service_type": "AC Repair, Fridge Repair",
    "district": "Howrah",
    "pincode": "711101",
    "PAN_Number": "LMNOP1234Q",
    "GSTIN_Number": "07LMNOP1234Q1A2"
  },
  {
    "shop_name": "Plumbing Experts",
    "owner_name": "Riya Das",
    "phone_number": "9001122334",
    "whatsapp_number": "9001122334",
    "service_type": "Plumber",
    "district": "Durgapur",
    "pincode": "713201",
    "PAN_Number": "ZXCVB6789T",
    "GSTIN_Number": "19ZXCVB6789T1G4"
  },
  {
    "shop_name": "Smart Tech Store",
    "owner_name": "Sourav Patra",
    "phone_number": "9012345678",
    "whatsapp_number": "",
    "service_type": "Electronics Repair, TV Repair",
    "district": "Kolkata",
    "pincode": "700003",
    "PAN_Number": "ASDFG2345H",
    "GSTIN_Number": "19ASDFG2345H1B3"
  },
  {
    "shop_name": "Metro Laptop Repair",
    "owner_name": "Sanjay Banerjee",
    "phone_number": "9101112233",
    "whatsapp_number": "9101112233",
    "service_type": "Laptop Repair, Computer Accessories",
    "district": "Kolkata",
    "pincode": "700005",
    "PAN_Number": "METRO1234A",
    "GSTIN_Number": "19METRO1234A1Z3"
  },
  {
    "shop_name": "City Plumbing Services",
    "owner_name": "Rakesh Chatterjee",
    "phone_number": "9122334455",
    "whatsapp_number": "9122334455",
    "service_type": "Plumber, Water Tank Installation",
    "district": "Kolkata",
    "pincode": "700006",
    "PAN_Number": "CITYPL1234B",
    "GSTIN_Number": "19CITYPL1234B1X9"
  },
  {
    "shop_name": "Smart Electricians",
    "owner_name": "Ananya Mukherjee",
    "phone_number": "9133445566",
    "whatsapp_number": "9133445566",
    "service_type": "Electrician, Home Wiring, AC Installation",
    "district": "Kolkata",
    "pincode": "700007",
    "PAN_Number": "SMARTE1234C",
    "GSTIN_Number": "19SMARTE1234C1P4"
  },
  {
    "shop_name": "Digital Care Solutions",
    "owner_name": "Ankit Kumar",
    "phone_number": "9090909090",
    "whatsapp_number": "9090909090",
    "service_type": "Laptop Repair",
    "district": "Asansol",
    "pincode": "713301",
    "PAN_Number": "QWERT1234Y",
    "GSTIN_Number": "19QWERT1234Y1Z2"
  },
  {
    "shop_name": "Sharma Plumbing",
    "owner_name": "Anil Sharma",
    "phone_number": "9080706050",
    "whatsapp_number": "9080706050",
    "service_type": "Plumber, Bathroom Fittings",
    "district": "Siliguri",
    "pincode": "734001",
    "PAN_Number": "PLUMB1234A",
    "GSTIN_Number": "19PLUMB1234A1P9"
  },
  {
    "shop_name": "Bright AC Repair",
    "owner_name": "Rohit Das",
    "phone_number": "9000011122",
    "whatsapp_number": "9000011122",
    "service_type": "AC Installation, Repair",
    "district": "Howrah",
    "pincode": "711102",
    "PAN_Number": "ACFIX1234B",
    "GSTIN_Number": "19ACFIX1234B1H6"
  },
  {
    "shop_name": "Quick TV Service",
    "owner_name": "Kunal Roy",
    "phone_number": "9321456789",
    "whatsapp_number": "9321456789",
    "service_type": "TV Installation, LED Repair",
    "district": "Kolkata",
    "pincode": "700004",
    "PAN_Number": "TVREP1234C",
    "GSTIN_Number": "19TVREP1234C1A7"
  },
  {
    "shop_name": "Sai Electrical Works",
    "owner_name": "Vikas Gupta",
    "phone_number": "9456123789",
    "whatsapp_number": "9456123789",
    "service_type": "Electrician, Wiring, Inverter Setup",
    "district": "Burdwan",
    "pincode": "713104",
    "PAN_Number": "ELEC1234D",
    "GSTIN_Number": "19ELEC1234D1X5"
  }
]
